{
  "type": "FeatureCollection",
  "features": [
    {
      "type": "Feature",
      "geometry": {
        "bbox": [
          -76.95262472865727,
          38.998750075690445,
          -76.80996327838625,
          39.044896531835676
        ],
        "type": "Polygon",
        "coordinates": [
          [
            [
              -76.95262472865727,
              38.998750075690445
            ],
            [
              -76.95262472865727,
              39.044896531835676
            ],
            [
              -76.80996327838625,
              39.044896531835676
            ],
            [
              -76.80996327838625,
              38.998750075690445
            ],
            [
              -76.95262472865727,
              38.998750075690445
            ]
          ]
        ]
      },
      "properties": {
        "name": "barc_outline_for_cropping"
      }
    }
  ]
}